[
  {
    "name": "Afghanistan",
    "code": "AF",
    "dial_code": "+93",
    "flag": "https://upload.wikimedia.org/wikipedia/commons/9/9a/Flag_of_Afghanistan.svg",
    "capital": "Kabul",
    "currency": "AFN"
  },
  {
    "name": "Aland Islands",
    "code": "AX",
    "dial_code": "+358",
    "capital": "Mariehamn",
    "currency": "EUR"
  },
  {
    "name": "Albania",
    "code": "AL",
    "dial_code": "+355",
    "flag": "https://upload.wikimedia.org/wikipedia/commons/3/36/Flag_of_Albania.svg",
    "capital": "Tirana",
    "currency": "ALL"
  },
  {
    "name": "Algeria",
    "code": "DZ",
    "dial_code": "+213",
    "flag": "https://upload.wikimedia.org/wikipedia/commons/7/77/Flag_of_Algeria.svg",
    "capital": "Algiers",
    "currency": "DZD"
  },
  {
    "name": "AmericanSamoa",
    "code": "AS",
    "dial_code": "+1684"
  },
  {
    "name": "Andorra",
    "code": "AD",
    "dial_code": "+376",
    "flag": "https://upload.wikimedia.org/wikipedia/commons/1/19/Flag_of_Andorra.svg",
    "capital": "Andorra la Vella",
    "currency": "EUR"
  },
  {
    "name": "Angola",
    "code": "AO",
    "dial_code": "+244",
    "flag": "https://upload.wikimedia.org/wikipedia/commons/9/9d/Flag_of_Angola.svg",
    "capital": "Luanda",
    "currency": "AOA"
  },
  {
    "name": "Anguilla",
    "code": "AI",
    "dial_code": "+1264",
    "flag": "https://upload.wikimedia.org/wikipedia/commons/b/b4/Flag_of_Anguilla.svg",
    "capital": "The Valley",
    "currency": "XCD"
  },
  {
    "name": "Antarctica",
    "code": "AQ",
    "dial_code": "+672",
    "capital": "",
    "currency": ""
  },
  {
    "name": "Antigua and Barbuda",
    "code": "AG",
    "dial_code": "+1268",
    "flag": "https://upload.wikimedia.org/wikipedia/commons/8/89/Flag_of_Antigua_and_Barbuda.svg",
    "capital": "St. John's",
    "currency": "XCD"
  },
  {
    "name": "Argentina",
    "code": "AR",
    "dial_code": "+54",
    "flag": "https://upload.wikimedia.org/wikipedia/commons/1/1a/Flag_of_Argentina.svg",
    "capital": "Buenos Aires",
    "currency": "ARS"
  },
  {
    "name": "Armenia",
    "code": "AM",
    "dial_code": "+374",
    "flag": "https://upload.wikimedia.org/wikipedia/commons/2/2f/Flag_of_Armenia.svg",
    "capital": "Yerevan",
    "currency": "AMD"
  },
  {
    "name": "Aruba",
    "code": "AW",
    "dial_code": "+297",
    "flag": "https://upload.wikimedia.org/wikipedia/commons/f/f6/Flag_of_Aruba.svg",
    "capital": "Oranjestad",
    "currency": "AWG"
  },
  {
    "name": "Australia",
    "code": "AU",
    "dial_code": "+61",
    "flag": "https://upload.wikimedia.org/wikipedia/commons/8/88/Flag_of_Australia_%28converted%29.svg",
    "capital": "Canberra",
    "currency": "AUD"
  },
  {
    "name": "Austria",
    "code": "AT",
    "dial_code": "+43",
    "flag": "https://upload.wikimedia.org/wikipedia/commons/4/41/Flag_of_Austria.svg",
    "capital": "Vienna",
    "currency": "EUR"
  },
  {
    "name": "Azerbaijan",
    "code": "AZ",
    "dial_code": "+994",
    "flag": "https://upload.wikimedia.org/wikipedia/commons/d/dd/Flag_of_Azerbaijan.svg",
    "capital": "Baku",
    "currency": "AZN"
  },
  {
    "name": "Bahamas",
    "code": "BS",
    "dial_code": "+1242",
    "flag": "https://upload.wikimedia.org/wikipedia/commons/9/93/Flag_of_the_Bahamas.svg",
    "capital": "Nassau",
    "currency": "BSD"
  },
  {
    "name": "Bahrain",
    "code": "BH",
    "dial_code": "+973",
    "flag": "https://upload.wikimedia.org/wikipedia/commons/2/2c/Flag_of_Bahrain.svg",
    "capital": "Manama",
    "currency": "BHD"
  },
  {
    "name": "Bangladesh",
    "code": "BD",
    "dial_code": "+880",
    "flag": "https://upload.wikimedia.org/wikipedia/commons/f/f9/Flag_of_Bangladesh.svg",
    "capital": "Dhaka",
    "currency": "BDT"
  },
  {
    "name": "Barbados",
    "code": "BB",
    "dial_code": "+1246",
    "flag": "https://upload.wikimedia.org/wikipedia/commons/e/ef/Flag_of_Barbados.svg",
    "capital": "Bridgetown",
    "currency": "BBD"
  },
  {
    "name": "Belarus",
    "code": "BY",
    "dial_code": "+375",
    "flag": "https://upload.wikimedia.org/wikipedia/commons/8/85/Flag_of_Belarus.svg",
    "capital": "Minsk",
    "currency": "BYR"
  },
  {
    "name": "Belgium",
    "code": "BE",
    "dial_code": "+32",
    "flag": "https://upload.wikimedia.org/wikipedia/commons/6/65/Flag_of_Belgium.svg",
    "capital": "Brussels",
    "currency": "EUR"
  },
  {
    "name": "Belize",
    "code": "BZ",
    "dial_code": "+501",
    "flag": "https://upload.wikimedia.org/wikipedia/commons/e/e7/Flag_of_Belize.svg",
    "capital": "Belmopan",
    "currency": "BZD"
  },
  {
    "name": "Benin",
    "code": "BJ",
    "dial_code": "+229",
    "flag": "https://upload.wikimedia.org/wikipedia/commons/0/0a/Flag_of_Benin.svg",
    "capital": "Porto-Novo",
    "currency": "XOF"
  },
  {
    "name": "Bermuda",
    "code": "BM",
    "dial_code": "+1441",
    "flag": "https://upload.wikimedia.org/wikipedia/commons/b/bf/Flag_of_Bermuda.svg",
    "capital": "Hamilton",
    "currency": "BMD"
  },
  {
    "name": "Bhutan",
    "code": "BT",
    "dial_code": "+975",
    "flag": "https://upload.wikimedia.org/wikipedia/commons/9/91/Flag_of_Bhutan.svg",
    "capital": "Thimphu",
    "currency": "BTN"
  },
  {
    "name": "Bolivia, Plurinational State of Bolivia",
    "code": "BO",
    "dial_code": "+591"
  },
  {
    "name": "Bosnia and Herzegovina",
    "code": "BA",
    "dial_code": "+387",
    "flag": "https://upload.wikimedia.org/wikipedia/commons/b/bf/Flag_of_Bosnia_and_Herzegovina.svg",
    "capital": "Sarajevo",
    "currency": "BAM"
  },
  {
    "name": "Botswana",
    "code": "BW",
    "dial_code": "+267",
    "flag": "https://upload.wikimedia.org/wikipedia/commons/f/fa/Flag_of_Botswana.svg",
    "capital": "Gaborone",
    "currency": "BWP"
  },
  {
    "name": "Bouvet Island",
    "code": "BV",
    "dial_code": "+47",
    "flag": "https://upload.wikimedia.org/wikipedia/commons/d/d9/Flag_of_Norway.svg",
    "capital": "",
    "currency": "NOK"
  },
  {
    "name": "Brazil",
    "code": "BR",
    "dial_code": "+55",
    "flag": "https://upload.wikimedia.org/wikipedia/en/0/05/Flag_of_Brazil.svg",
    "capital": "Brasilia",
    "currency": "BRL"
  },
  {
    "name": "British Indian Ocean Territory",
    "code": "IO",
    "dial_code": "+246",
    "flag": "https://upload.wikimedia.org/wikipedia/commons/6/6e/Flag_of_the_British_Indian_Ocean_Territory.svg",
    "capital": "Diego Garcia",
    "currency": "USD"
  },
  {
    "name": "Brunei Darussalam",
    "code": "BN",
    "dial_code": "+673",
    "flag": "https://upload.wikimedia.org/wikipedia/commons/9/9c/Flag_of_Brunei.svg"
  },
  {
    "name": "Bulgaria",
    "code": "BG",
    "dial_code": "+359",
    "flag": "https://upload.wikimedia.org/wikipedia/commons/9/9a/Flag_of_Bulgaria.svg",
    "capital": "Sofia",
    "currency": "BGN"
  },
  {
    "name": "Burkina Faso",
    "code": "BF",
    "dial_code": "+226",
    "flag": "https://upload.wikimedia.org/wikipedia/commons/3/31/Flag_of_Burkina_Faso.svg",
    "capital": "Ouagadougou",
    "currency": "XOF"
  },
  {
    "name": "Burundi",
    "code": "BI",
    "dial_code": "+257",
    "flag": "https://upload.wikimedia.org/wikipedia/commons/5/50/Flag_of_Burundi.svg",
    "capital": "Bujumbura",
    "currency": "BIF"
  },
  {
    "name": "Cambodia",
    "code": "KH",
    "dial_code": "+855",
    "flag": "https://upload.wikimedia.org/wikipedia/commons/8/83/Flag_of_Cambodia.svg",
    "capital": "Phnom Penh",
    "currency": "KHR"
  },
  {
    "name": "Cameroon",
    "code": "CM",
    "dial_code": "+237",
    "flag": "https://upload.wikimedia.org/wikipedia/commons/4/4f/Flag_of_Cameroon.svg",
    "capital": "Yaounde",
    "currency": "XAF"
  },
  {
    "name": "Canada",
    "code": "CA",
    "dial_code": "+1",
    "flag": "https://upload.wikimedia.org/wikipedia/en/c/cf/Flag_of_Canada.svg",
    "capital": "Ottawa",
    "currency": "CAD"
  },
  {
    "name": "Cape Verde",
    "code": "CV",
    "dial_code": "+238",
    "flag": "https://upload.wikimedia.org/wikipedia/commons/3/38/Flag_of_Cape_Verde.svg",
    "capital": "Praia",
    "currency": "CVE"
  },
  {
    "name": "Cayman Islands",
    "code": "KY",
    "dial_code": "+1345",
    "flag": "https://upload.wikimedia.org/wikipedia/commons/0/0f/Flag_of_the_Cayman_Islands.svg",
    "capital": "George Town",
    "currency": "KYD"
  },
  {
    "name": "Central African Republic",
    "code": "CF",
    "dial_code": "+236",
    "flag": "https://upload.wikimedia.org/wikipedia/commons/6/6f/Flag_of_the_Central_African_Republic.svg",
    "capital": "Bangui",
    "currency": "XAF"
  },
  {
    "name": "Chad",
    "code": "TD",
    "dial_code": "+235",
    "flag": "https://upload.wikimedia.org/wikipedia/commons/4/4b/Flag_of_Chad.svg",
    "capital": "N'Djamena",
    "currency": "XAF"
  },
  {
    "name": "Chile",
    "code": "CL",
    "dial_code": "+56",
    "flag": "https://upload.wikimedia.org/wikipedia/commons/7/78/Flag_of_Chile.svg",
    "capital": "Santiago",
    "currency": "CLP"
  },
  {
    "name": "China",
    "code": "CN",
    "dial_code": "+86",
    "flag": "https://upload.wikimedia.org/wikipedia/commons/f/fa/Flag_of_the_People%27s_Republic_of_China.svg",
    "capital": "Beijing",
    "currency": "CNY"
  },
  {
    "name": "Christmas Island",
    "code": "CX",
    "dial_code": "+61",
    "flag": "https://upload.wikimedia.org/wikipedia/commons/6/67/Flag_of_Christmas_Island.svg",
    "capital": "Flying Fish Cove",
    "currency": "AUD"
  },
  {
    "name": "Cocos (Keeling) Islands",
    "code": "CC",
    "dial_code": "+61",
    "flag": "https://upload.wikimedia.org/wikipedia/commons/7/74/Flag_of_the_Cocos_%28Keeling%29_Islands.svg"
  },
  {
    "name": "Colombia",
    "code": "CO",
    "dial_code": "+57",
    "flag": "https://upload.wikimedia.org/wikipedia/commons/2/21/Flag_of_Colombia.svg",
    "capital": "Bogota",
    "currency": "COP"
  },
  {
    "name": "Comoros",
    "code": "KM",
    "dial_code": "+269",
    "flag": "https://upload.wikimedia.org/wikipedia/commons/9/94/Flag_of_the_Comoros.svg",
    "capital": "Moroni",
    "currency": "KMF"
  },
  {
    "name": "Congo",
    "code": "CG",
    "dial_code": "+242",
    "flag": "https://upload.wikimedia.org/wikipedia/commons/9/92/Flag_of_the_Republic_of_the_Congo.svg"
  },
  {
    "name": "Congo, The Democratic Republic of the Congo",
    "code": "CD",
    "dial_code": "+243"
  },
  {
    "name": "Cook Islands",
    "code": "CK",
    "dial_code": "+682",
    "flag": "https://upload.wikimedia.org/wikipedia/commons/3/35/Flag_of_the_Cook_Islands.svg",
    "capital": "Avarua",
    "currency": "NZD"
  },
  {
    "name": "Costa Rica",
    "code": "CR",
    "dial_code": "+506",
    "flag": "https://upload.wikimedia.org/wikipedia/commons/b/bc/Flag_of_Costa_Rica_%28state%29.svg",
    "capital": "San Jose",
    "currency": "CRC"
  },
  {
    "name": "Cote d'Ivoire",
    "code": "CI",
    "dial_code": "+225"
  },
  {
    "name": "Croatia",
    "code": "HR",
    "dial_code": "+385",
    "flag": "https://upload.wikimedia.org/wikipedia/commons/1/1b/Flag_of_Croatia.svg",
    "capital": "Zagreb",
    "currency": "HRK"
  },
  {
    "name": "Cuba",
    "code": "CU",
    "dial_code": "+53",
    "flag": "https://upload.wikimedia.org/wikipedia/commons/b/bd/Flag_of_Cuba.svg",
    "capital": "Havana",
    "currency": "CUP"
  },
  {
    "name": "Cyprus",
    "code": "CY",
    "dial_code": "+357",
    "flag": "https://upload.wikimedia.org/wikipedia/commons/d/d4/Flag_of_Cyprus.svg",
    "capital": "Nicosia",
    "currency": "EUR"
  },
  {
    "name": "Czech Republic",
    "code": "CZ",
    "dial_code": "+420",
    "flag": "https://upload.wikimedia.org/wikipedia/commons/c/cb/Flag_of_the_Czech_Republic.svg",
    "capital": "Prague",
    "currency": "CZK"
  },
  {
    "name": "Denmark",
    "code": "DK",
    "dial_code": "+45",
    "flag": "https://upload.wikimedia.org/wikipedia/commons/9/9c/Flag_of_Denmark.svg",
    "capital": "Copenhagen",
    "currency": "DKK"
  },
  {
    "name": "Djibouti",
    "code": "DJ",
    "dial_code": "+253",
    "flag": "https://upload.wikimedia.org/wikipedia/commons/3/34/Flag_of_Djibouti.svg",
    "capital": "Djibouti",
    "currency": "DJF"
  },
  {
    "name": "Dominica",
    "code": "DM",
    "dial_code": "+1767",
    "flag": "https://upload.wikimedia.org/wikipedia/commons/c/c4/Flag_of_Dominica.svg",
    "capital": "Roseau",
    "currency": "XCD"
  },
  {
    "name": "Dominican Republic",
    "code": "DO",
    "dial_code": "+1849",
    "flag": "https://upload.wikimedia.org/wikipedia/commons/9/9f/Flag_of_the_Dominican_Republic.svg",
    "capital": "Santo Domingo",
    "currency": "DOP"
  },
  {
    "name": "Ecuador",
    "code": "EC",
    "dial_code": "+593",
    "flag": "https://upload.wikimedia.org/wikipedia/commons/e/e8/Flag_of_Ecuador.svg",
    "capital": "Quito",
    "currency": "USD"
  },
  {
    "name": "Egypt",
    "code": "EG",
    "dial_code": "+20",
    "flag": "https://upload.wikimedia.org/wikipedia/commons/f/fe/Flag_of_Egypt.svg",
    "capital": "Cairo",
    "currency": "EGP"
  },
  {
    "name": "El Salvador",
    "code": "SV",
    "dial_code": "+503",
    "flag": "https://upload.wikimedia.org/wikipedia/commons/3/34/Flag_of_El_Salvador.svg",
    "capital": "San Salvador",
    "currency": "USD"
  },
  {
    "name": "Equatorial Guinea",
    "code": "GQ",
    "dial_code": "+240",
    "flag": "https://upload.wikimedia.org/wikipedia/commons/3/31/Flag_of_Equatorial_Guinea.svg",
    "capital": "Malabo",
    "currency": "XAF"
  },
  {
    "name": "Eritrea",
    "code": "ER",
    "dial_code": "+291",
    "flag": "https://upload.wikimedia.org/wikipedia/commons/2/29/Flag_of_Eritrea.svg",
    "capital": "Asmara",
    "currency": "ERN"
  },
  {
    "name": "Estonia",
    "code": "EE",
    "dial_code": "+372",
    "flag": "https://upload.wikimedia.org/wikipedia/commons/8/8f/Flag_of_Estonia.svg",
    "capital": "Tallinn",
    "currency": "EUR"
  },
  {
    "name": "Ethiopia",
    "code": "ET",
    "dial_code": "+251",
    "flag": "https://upload.wikimedia.org/wikipedia/commons/7/71/Flag_of_Ethiopia.svg",
    "capital": "Addis Ababa",
    "currency": "ETB"
  },
  {
    "name": "Falkland Islands (Malvinas)",
    "code": "FK",
    "dial_code": "+500",
    "flag": "https://upload.wikimedia.org/wikipedia/commons/8/83/Flag_of_the_Falkland_Islands.svg"
  },
  {
    "name": "Faroe Islands",
    "code": "FO",
    "dial_code": "+298",
    "flag": "https://upload.wikimedia.org/wikipedia/commons/3/3c/Flag_of_the_Faroe_Islands.svg",
    "capital": "Torshavn",
    "currency": "DKK"
  },
  {
    "name": "Fiji",
    "code": "FJ",
    "dial_code": "+679",
    "flag": "https://upload.wikimedia.org/wikipedia/commons/b/ba/Flag_of_Fiji.svg",
    "capital": "Suva",
    "currency": "FJD"
  },
  {
    "name": "Finland",
    "code": "FI",
    "dial_code": "+358",
    "flag": "https://upload.wikimedia.org/wikipedia/commons/b/bc/Flag_of_Finland.svg",
    "capital": "Helsinki",
    "currency": "EUR"
  },
  {
    "name": "France",
    "code": "FR",
    "dial_code": "+33",
    "flag": "https://upload.wikimedia.org/wikipedia/en/c/c3/Flag_of_France.svg",
    "capital": "Paris",
    "currency": "EUR"
  },
  {
    "name": "French Guiana",
    "code": "GF",
    "dial_code": "+594",
    "flag": "https://upload.wikimedia.org/wikipedia/commons/2/29/Flag_of_French_Guiana.svg",
    "capital": "Cayenne",
    "currency": "EUR"
  },
  {
    "name": "French Polynesia",
    "code": "PF",
    "dial_code": "+689",
    "flag": "https://upload.wikimedia.org/wikipedia/commons/d/db/Flag_of_French_Polynesia.svg",
    "capital": "Papeete",
    "currency": "XPF"
  },
  {
    "name": "Gabon",
    "code": "GA",
    "dial_code": "+241",
    "flag": "https://upload.wikimedia.org/wikipedia/commons/0/04/Flag_of_Gabon.svg",
    "capital": "Libreville",
    "currency": "XAF"
  },
  {
    "name": "Gambia",
    "code": "GM",
    "dial_code": "+220",
    "flag": "https://upload.wikimedia.org/wikipedia/commons/7/77/Flag_of_The_Gambia.svg",
    "capital": "Banjul",
    "currency": "GMD"
  },
  {
    "name": "Georgia",
    "code": "GE",
    "dial_code": "+995",
    "flag": "https://upload.wikimedia.org/wikipedia/commons/0/0f/Flag_of_Georgia.svg",
    "capital": "Tbilisi",
    "currency": "GEL"
  },
  {
    "name": "Germany",
    "code": "DE",
    "dial_code": "+49",
    "flag": "https://upload.wikimedia.org/wikipedia/en/b/ba/Flag_of_Germany.svg",
    "capital": "Berlin",
    "currency": "EUR"
  },
  {
    "name": "Ghana",
    "code": "GH",
    "dial_code": "+233",
    "flag": "https://upload.wikimedia.org/wikipedia/commons/1/19/Flag_of_Ghana.svg",
    "capital": "Accra",
    "currency": "GHS"
  },
  {
    "name": "Gibraltar",
    "code": "GI",
    "dial_code": "+350",
    "flag": "https://upload.wikimedia.org/wikipedia/commons/0/02/Flag_of_Gibraltar.svg",
    "capital": "Gibraltar",
    "currency": "GIP"
  },
  {
    "name": "Greece",
    "code": "GR",
    "dial_code": "+30",
    "flag": "https://upload.wikimedia.org/wikipedia/commons/5/5c/Flag_of_Greece.svg",
    "capital": "Athens",
    "currency": "EUR"
  },
  {
    "name": "Greenland",
    "code": "GL",
    "dial_code": "+299",
    "flag": "https://upload.wikimedia.org/wikipedia/commons/0/09/Flag_of_Greenland.svg",
    "capital": "Nuuk",
    "currency": "DKK"
  },
  {
    "name": "Grenada",
    "code": "GD",
    "dial_code": "+1473",
    "flag": "https://upload.wikimedia.org/wikipedia/commons/b/bc/Flag_of_Grenada.svg",
    "capital": "St. George's",
    "currency": "XCD"
  },
  {
    "name": "Guadeloupe",
    "code": "GP",
    "dial_code": "+590",
    "flag": "https://upload.wikimedia.org/wikipedia/commons/e/e7/Unofficial_flag_of_Guadeloupe_%28local%29.svg",
    "capital": "Basse-Terre",
    "currency": "EUR"
  },
  {
    "name": "Guam",
    "code": "GU",
    "dial_code": "+1671",
    "flag": "https://upload.wikimedia.org/wikipedia/commons/0/07/Flag_of_Guam.svg",
    "capital": "Hagatna",
    "currency": "USD"
  },
  {
    "name": "Guatemala",
    "code": "GT",
    "dial_code": "+502",
    "flag": "https://upload.wikimedia.org/wikipedia/commons/e/ec/Flag_of_Guatemala.svg",
    "capital": "Guatemala City",
    "currency": "GTQ"
  },
  {
    "name": "Guernsey",
    "code": "GG",
    "dial_code": "+44",
    "flag": "https://upload.wikimedia.org/wikipedia/commons/f/fa/Flag_of_Guernsey.svg",
    "capital": "St Peter Port",
    "currency": "GBP"
  },
  {
    "name": "Guinea",
    "code": "GN",
    "dial_code": "+224",
    "flag": "https://upload.wikimedia.org/wikipedia/commons/e/ed/Flag_of_Guinea.svg",
    "capital": "Conakry",
    "currency": "GNF"
  },
  {
    "name": "Guinea-Bissau",
    "code": "GW",
    "dial_code": "+245",
    "flag": "https://upload.wikimedia.org/wikipedia/commons/0/01/Flag_of_Guinea-Bissau.svg",
    "capital": "Bissau",
    "currency": "XOF"
  },
  {
    "name": "Guyana",
    "code": "GY",
    "dial_code": "+592",
    "flag": "https://upload.wikimedia.org/wikipedia/commons/9/99/Flag_of_Guyana.svg",
    "capital": "Georgetown",
    "currency": "GYD"
  },
  {
    "name": "Haiti",
    "code": "HT",
    "dial_code": "+509",
    "flag": "https://upload.wikimedia.org/wikipedia/commons/5/56/Flag_of_Haiti.svg",
    "capital": "Port-au-Prince",
    "currency": "HTG"
  },
  {
    "name": "Heard Island and Mcdonald Islands",
    "code": "HM",
    "dial_code": "+672"
  },
  {
    "name": "Holy See (Vatican City State)",
    "code": "VA",
    "dial_code": "+379",
    "flag": "https://upload.wikimedia.org/wikipedia/commons/0/00/Flag_of_the_Vatican_City.svg"
  },
  {
    "name": "Honduras",
    "code": "HN",
    "dial_code": "+504",
    "flag": "https://upload.wikimedia.org/wikipedia/commons/c/ca/Naval_Ensign_of_Honduras.svg",
    "capital": "Tegucigalpa",
    "currency": "HNL"
  },
  {
    "name": "Hong Kong",
    "code": "HK",
    "dial_code": "+852",
    "flag": "https://upload.wikimedia.org/wikipedia/commons/5/5b/Flag_of_Hong_Kong.svg",
    "capital": "Hong Kong",
    "currency": "HKD"
  },
  {
    "name": "Hungary",
    "code": "HU",
    "dial_code": "+36",
    "flag": "https://upload.wikimedia.org/wikipedia/commons/c/c1/Flag_of_Hungary.svg",
    "capital": "Budapest",
    "currency": "HUF"
  },
  {
    "name": "Iceland",
    "code": "IS",
    "dial_code": "+354",
    "flag": "https://upload.wikimedia.org/wikipedia/commons/c/ce/Flag_of_Iceland.svg",
    "capital": "Reykjavik",
    "currency": "ISK"
  },
  {
    "name": "India",
    "code": "IN",
    "dial_code": "+91",
    "flag": "https://upload.wikimedia.org/wikipedia/en/4/41/Flag_of_India.svg",
    "capital": "New Delhi",
    "currency": "INR"
  },
  {
    "name": "Indonesia",
    "code": "ID",
    "dial_code": "+62",
    "flag": "https://upload.wikimedia.org/wikipedia/commons/9/9f/Flag_of_Indonesia.svg",
    "capital": "Jakarta",
    "currency": "IDR"
  },
  {
    "name": "Iran, Islamic Republic of Persian Gulf",
    "code": "IR",
    "dial_code": "+98"
  },
  {
    "name": "Iraq",
    "code": "IQ",
    "dial_code": "+964",
    "flag": "https://upload.wikimedia.org/wikipedia/commons/f/f6/Flag_of_Iraq.svg",
    "capital": "Baghdad",
    "currency": "IQD"
  },
  {
    "name": "Ireland",
    "code": "IE",
    "dial_code": "+353",
    "flag": "https://upload.wikimedia.org/wikipedia/commons/4/45/Flag_of_Ireland.svg",
    "capital": "Dublin",
    "currency": "EUR"
  },
  {
    "name": "Isle of Man",
    "code": "IM",
    "dial_code": "+44",
    "flag": "https://upload.wikimedia.org/wikipedia/commons/b/bc/Flag_of_the_Isle_of_Man.svg",
    "capital": "Douglas, Isle of Man",
    "currency": "GBP"
  },
  {
    "name": "Israel",
    "code": "IL",
    "dial_code": "+972",
    "flag": "https://upload.wikimedia.org/wikipedia/commons/d/d4/Flag_of_Israel.svg",
    "capital": "Jerusalem",
    "currency": "ILS"
  },
  {
    "name": "Italy",
    "code": "IT",
    "dial_code": "+39",
    "flag": "https://upload.wikimedia.org/wikipedia/en/0/03/Flag_of_Italy.svg",
    "capital": "Rome",
    "currency": "EUR"
  },
  {
    "name": "Jamaica",
    "code": "JM",
    "dial_code": "+1876",
    "flag": "https://upload.wikimedia.org/wikipedia/commons/0/0a/Flag_of_Jamaica.svg",
    "capital": "Kingston",
    "currency": "JMD"
  },
  {
    "name": "Japan",
    "code": "JP",
    "dial_code": "+81",
    "flag": "https://upload.wikimedia.org/wikipedia/en/9/9e/Flag_of_Japan.svg",
    "capital": "Tokyo",
    "currency": "JPY"
  },
  {
    "name": "Jersey",
    "code": "JE",
    "dial_code": "+44",
    "flag": "https://upload.wikimedia.org/wikipedia/commons/1/1c/Flag_of_Jersey.svg",
    "capital": "Saint Helier",
    "currency": "GBP"
  },
  {
    "name": "Jordan",
    "code": "JO",
    "dial_code": "+962",
    "flag": "https://upload.wikimedia.org/wikipedia/commons/c/c0/Flag_of_Jordan.svg",
    "capital": "Amman",
    "currency": "JOD"
  },
  {
    "name": "Kazakhstan",
    "code": "KZ",
    "dial_code": "+77",
    "flag": "https://upload.wikimedia.org/wikipedia/commons/d/d3/Flag_of_Kazakhstan.svg",
    "capital": "Astana",
    "currency": "KZT"
  },
  {
    "name": "Kenya",
    "code": "KE",
    "dial_code": "+254",
    "flag": "https://upload.wikimedia.org/wikipedia/commons/4/49/Flag_of_Kenya.svg",
    "capital": "Nairobi",
    "currency": "KES"
  },
  {
    "name": "Kiribati",
    "code": "KI",
    "dial_code": "+686",
    "flag": "https://upload.wikimedia.org/wikipedia/commons/d/d3/Flag_of_Kiribati.svg",
    "capital": "Tarawa",
    "currency": "AUD"
  },
  {
    "name": "Korea, Democratic People's Republic of Korea",
    "code": "KP",
    "dial_code": "+850"
  },
  {
    "name": "Korea, Republic of South Korea",
    "code": "KR",
    "dial_code": "+82"
  },
  {
    "name": "Kosovo",
    "code": "XK",
    "dial_code": "+383",
    "capital": "Pristina",
    "currency": "EUR"
  },
  {
    "name": "Kuwait",
    "code": "KW",
    "dial_code": "+965",
    "flag": "https://upload.wikimedia.org/wikipedia/commons/a/aa/Flag_of_Kuwait.svg",
    "capital": "Kuwait City",
    "currency": "KWD"
  },
  {
    "name": "Kyrgyzstan",
    "code": "KG",
    "dial_code": "+996",
    "flag": "https://upload.wikimedia.org/wikipedia/commons/c/c7/Flag_of_Kyrgyzstan.svg",
    "capital": "Bishkek",
    "currency": "KGS"
  },
  {
    "name": "Laos",
    "code": "LA",
    "dial_code": "+856",
    "capital": "Vientiane",
    "currency": "LAK"
  },
  {
    "name": "Latvia",
    "code": "LV",
    "dial_code": "+371",
    "flag": "https://upload.wikimedia.org/wikipedia/commons/8/84/Flag_of_Latvia.svg",
    "capital": "Riga",
    "currency": "EUR"
  },
  {
    "name": "Lebanon",
    "code": "LB",
    "dial_code": "+961",
    "flag": "https://upload.wikimedia.org/wikipedia/commons/5/59/Flag_of_Lebanon.svg",
    "capital": "Beirut",
    "currency": "LBP"
  },
  {
    "name": "Lesotho",
    "code": "LS",
    "dial_code": "+266",
    "flag": "https://upload.wikimedia.org/wikipedia/commons/4/4a/Flag_of_Lesotho.svg",
    "capital": "Maseru",
    "currency": "LSL"
  },
  {
    "name": "Liberia",
    "code": "LR",
    "dial_code": "+231",
    "flag": "https://upload.wikimedia.org/wikipedia/commons/b/b8/Flag_of_Liberia.svg",
    "capital": "Monrovia",
    "currency": "LRD"
  },
  {
    "name": "Libyan Arab Jamahiriya",
    "code": "LY",
    "dial_code": "+218"
  },
  {
    "name": "Liechtenstein",
    "code": "LI",
    "dial_code": "+423",
    "flag": "https://upload.wikimedia.org/wikipedia/commons/4/47/Flag_of_Liechtenstein.svg",
    "capital": "Vaduz",
    "currency": "CHF"
  },
  {
    "name": "Lithuania",
    "code": "LT",
    "dial_code": "+370",
    "flag": "https://upload.wikimedia.org/wikipedia/commons/1/11/Flag_of_Lithuania.svg",
    "capital": "Vilnius",
    "currency": "LTL"
  },
  {
    "name": "Luxembourg",
    "code": "LU",
    "dial_code": "+352",
    "flag": "https://upload.wikimedia.org/wikipedia/commons/d/da/Flag_of_Luxembourg.svg",
    "capital": "Luxembourg",
    "currency": "EUR"
  },
  {
    "name": "Macao",
    "code": "MO",
    "dial_code": "+853",
    "flag": "https://upload.wikimedia.org/wikipedia/commons/6/63/Flag_of_Macau.svg",
    "capital": "Macao",
    "currency": "MOP"
  },
  {
    "name": "Macedonia",
    "code": "MK",
    "dial_code": "+389",
    "capital": "Skopje",
    "currency": "MKD"
  },
  {
    "name": "Madagascar",
    "code": "MG",
    "dial_code": "+261",
    "flag": "https://upload.wikimedia.org/wikipedia/commons/b/bc/Flag_of_Madagascar.svg",
    "capital": "Antananarivo",
    "currency": "MGA"
  },
  {
    "name": "Malawi",
    "code": "MW",
    "dial_code": "+265",
    "flag": "https://upload.wikimedia.org/wikipedia/commons/d/d1/Flag_of_Malawi.svg",
    "capital": "Lilongwe",
    "currency": "MWK"
  },
  {
    "name": "Malaysia",
    "code": "MY",
    "dial_code": "+60",
    "flag": "https://upload.wikimedia.org/wikipedia/commons/6/66/Flag_of_Malaysia.svg",
    "capital": "Kuala Lumpur",
    "currency": "MYR"
  },
  {
    "name": "Maldives",
    "code": "MV",
    "dial_code": "+960",
    "flag": "https://upload.wikimedia.org/wikipedia/commons/0/0f/Flag_of_Maldives.svg",
    "capital": "Male",
    "currency": "MVR"
  },
  {
    "name": "Mali",
    "code": "ML",
    "dial_code": "+223",
    "flag": "https://upload.wikimedia.org/wikipedia/commons/9/92/Flag_of_Mali.svg",
    "capital": "Bamako",
    "currency": "XOF"
  },
  {
    "name": "Malta",
    "code": "MT",
    "dial_code": "+356",
    "flag": "https://upload.wikimedia.org/wikipedia/commons/7/73/Flag_of_Malta.svg",
    "capital": "Valletta",
    "currency": "EUR"
  },
  {
    "name": "Marshall Islands",
    "code": "MH",
    "dial_code": "+692",
    "flag": "https://upload.wikimedia.org/wikipedia/commons/2/2e/Flag_of_the_Marshall_Islands.svg",
    "capital": "Majuro",
    "currency": "USD"
  },
  {
    "name": "Martinique",
    "code": "MQ",
    "dial_code": "+596",
    "flag": "https://upload.wikimedia.org/wikipedia/commons/e/e7/Unofficial_flag_of_Guadeloupe_%28local%29.svg",
    "capital": "Fort-de-France",
    "currency": "EUR"
  },
  {
    "name": "Mauritania",
    "code": "MR",
    "dial_code": "+222",
    "flag": "https://upload.wikimedia.org/wikipedia/commons/4/43/Flag_of_Mauritania.svg",
    "capital": "Nouakchott",
    "currency": "MRO"
  },
  {
    "name": "Mauritius",
    "code": "MU",
    "dial_code": "+230",
    "flag": "https://upload.wikimedia.org/wikipedia/commons/7/77/Flag_of_Mauritius.svg",
    "capital": "Port Louis",
    "currency": "MUR"
  },
  {
    "name": "Mayotte",
    "code": "YT",
    "dial_code": "+262",
    "flag": "https://upload.wikimedia.org/wikipedia/en/c/c3/Flag_of_France.svg",
    "capital": "Mamoudzou",
    "currency": "EUR"
  },
  {
    "name": "Mexico",
    "code": "MX",
    "dial_code": "+52",
    "flag": "https://upload.wikimedia.org/wikipedia/commons/f/fc/Flag_of_Mexico.svg",
    "capital": "Mexico City",
    "currency": "MXN"
  },
  {
    "name": "Micronesia, Federated States of Micronesia",
    "code": "FM",
    "dial_code": "+691"
  },
  {
    "name": "Moldova",
    "code": "MD",
    "dial_code": "+373",
    "capital": "Chisinau",
    "currency": "MDL"
  },
  {
    "name": "Monaco",
    "code": "MC",
    "dial_code": "+377",
    "flag": "https://upload.wikimedia.org/wikipedia/commons/e/ea/Flag_of_Monaco.svg",
    "capital": "Monaco",
    "currency": "EUR"
  },
  {
    "name": "Mongolia",
    "code": "MN",
    "dial_code": "+976",
    "flag": "https://upload.wikimedia.org/wikipedia/commons/4/4c/Flag_of_Mongolia.svg",
    "capital": "Ulan Bator",
    "currency": "MNT"
  },
  {
    "name": "Montenegro",
    "code": "ME",
    "dial_code": "+382",
    "flag": "https://upload.wikimedia.org/wikipedia/commons/6/64/Flag_of_Montenegro.svg",
    "capital": "Podgorica",
    "currency": "EUR"
  },
  {
    "name": "Montserrat",
    "code": "MS",
    "dial_code": "+1664",
    "flag": "https://upload.wikimedia.org/wikipedia/commons/d/d0/Flag_of_Montserrat.svg",
    "capital": "Plymouth",
    "currency": "XCD"
  },
  {
    "name": "Morocco",
    "code": "MA",
    "dial_code": "+212",
    "flag": "https://upload.wikimedia.org/wikipedia/commons/2/2c/Flag_of_Morocco.svg",
    "capital": "Rabat",
    "currency": "MAD"
  },
  {
    "name": "Mozambique",
    "code": "MZ",
    "dial_code": "+258",
    "flag": "https://upload.wikimedia.org/wikipedia/commons/d/d0/Flag_of_Mozambique.svg",
    "capital": "Maputo",
    "currency": "MZN"
  },
  {
    "name": "Myanmar",
    "code": "MM",
    "dial_code": "+95",
    "flag": "https://upload.wikimedia.org/wikipedia/commons/8/8c/Flag_of_Myanmar.svg",
    "capital": "Nay Pyi Taw",
    "currency": "MMK"
  },
  {
    "name": "Namibia",
    "code": "NA",
    "dial_code": "+264",
    "flag": "https://upload.wikimedia.org/wikipedia/commons/0/00/Flag_of_Namibia.svg",
    "capital": "Windhoek",
    "currency": "NAD"
  },
  {
    "name": "Nauru",
    "code": "NR",
    "dial_code": "+674",
    "flag": "https://upload.wikimedia.org/wikipedia/commons/3/30/Flag_of_Nauru.svg",
    "capital": "Yaren",
    "currency": "AUD"
  },
  {
    "name": "Nepal",
    "code": "NP",
    "dial_code": "+977",
    "flag": "https://upload.wikimedia.org/wikipedia/commons/9/9b/Flag_of_Nepal.svg",
    "capital": "Kathmandu",
    "currency": "NPR"
  },
  {
    "name": "Netherlands",
    "code": "NL",
    "dial_code": "+31",
    "flag": "https://upload.wikimedia.org/wikipedia/commons/2/20/Flag_of_the_Netherlands.svg",
    "capital": "Amsterdam",
    "currency": "EUR"
  },
  {
    "name": "Netherlands Antilles",
    "code": "AN",
    "dial_code": "+599"
  },
  {
    "name": "New Caledonia",
    "code": "NC",
    "dial_code": "+687",
    "flag": "https://upload.wikimedia.org/wikipedia/commons/2/26/Flags_of_New_Caledonia.svg",
    "capital": "Noumea",
    "currency": "XPF"
  },
  {
    "name": "New Zealand",
    "code": "NZ",
    "dial_code": "+64",
    "flag": "https://upload.wikimedia.org/wikipedia/commons/3/3e/Flag_of_New_Zealand.svg",
    "capital": "Wellington",
    "currency": "NZD"
  },
  {
    "name": "Nicaragua",
    "code": "NI",
    "dial_code": "+505",
    "flag": "https://upload.wikimedia.org/wikipedia/commons/1/19/Flag_of_Nicaragua.svg",
    "capital": "Managua",
    "currency": "NIO"
  },
  {
    "name": "Niger",
    "code": "NE",
    "dial_code": "+227",
    "flag": "https://upload.wikimedia.org/wikipedia/commons/f/f4/Flag_of_Niger.svg",
    "capital": "Niamey",
    "currency": "XOF"
  },
  {
    "name": "Nigeria",
    "code": "NG",
    "dial_code": "+234",
    "flag": "https://upload.wikimedia.org/wikipedia/commons/7/79/Flag_of_Nigeria.svg",
    "capital": "Abuja",
    "currency": "NGN"
  },
  {
    "name": "Niue",
    "code": "NU",
    "dial_code": "+683",
    "flag": "https://upload.wikimedia.org/wikipedia/commons/0/01/Flag_of_Niue.svg",
    "capital": "Alofi",
    "currency": "NZD"
  },
  {
    "name": "Norfolk Island",
    "code": "NF",
    "dial_code": "+672",
    "flag": "https://upload.wikimedia.org/wikipedia/commons/4/48/Flag_of_Norfolk_Island.svg",
    "capital": "Kingston",
    "currency": "AUD"
  },
  {
    "name": "Northern Mariana Islands",
    "code": "MP",
    "dial_code": "+1670",
    "flag": "https://upload.wikimedia.org/wikipedia/commons/e/e0/Flag_of_the_Northern_Mariana_Islands.svg",
    "capital": "Saipan",
    "currency": "USD"
  },
  {
    "name": "Norway",
    "code": "NO",
    "dial_code": "+47",
    "flag": "https://upload.wikimedia.org/wikipedia/commons/d/d9/Flag_of_Norway.svg",
    "capital": "Oslo",
    "currency": "NOK"
  },
  {
    "name": "Oman",
    "code": "OM",
    "dial_code": "+968",
    "flag": "https://upload.wikimedia.org/wikipedia/commons/d/dd/Flag_of_Oman.svg",
    "capital": "Muscat",
    "currency": "OMR"
  },
  {
    "name": "Pakistan",
    "code": "PK",
    "dial_code": "+92",
    "flag": "https://upload.wikimedia.org/wikipedia/commons/3/32/Flag_of_Pakistan.svg",
    "capital": "Islamabad",
    "currency": "PKR"
  },
  {
    "name": "Palau",
    "code": "PW",
    "dial_code": "+680",
    "flag": "https://upload.wikimedia.org/wikipedia/commons/4/48/Flag_of_Palau.svg",
    "capital": "Melekeok",
    "currency": "USD"
  },
  {
    "name": "Palestinian Territory, Occupied",
    "code": "PS",
    "dial_code": "+970"
  },
  {
    "name": "Panama",
    "code": "PA",
    "dial_code": "+507",
    "flag": "https://upload.wikimedia.org/wikipedia/commons/a/ab/Flag_of_Panama.svg",
    "capital": "Panama City",
    "currency": "PAB"
  },
  {
    "name": "Papua New Guinea",
    "code": "PG",
    "dial_code": "+675",
    "flag": "https://upload.wikimedia.org/wikipedia/commons/e/e3/Flag_of_Papua_New_Guinea.svg",
    "capital": "Port Moresby",
    "currency": "PGK"
  },
  {
    "name": "Paraguay",
    "code": "PY",
    "dial_code": "+595",
    "flag": "https://upload.wikimedia.org/wikipedia/commons/2/27/Flag_of_Paraguay.svg",
    "capital": "Asuncion",
    "currency": "PYG"
  },
  {
    "name": "Peru",
    "code": "PE",
    "dial_code": "+51",
    "flag": "https://upload.wikimedia.org/wikipedia/commons/c/cf/Flag_of_Peru.svg",
    "capital": "Lima",
    "currency": "PEN"
  },
  {
    "name": "Philippines",
    "code": "PH",
    "dial_code": "+63",
    "flag": "https://upload.wikimedia.org/wikipedia/commons/9/99/Flag_of_the_Philippines.svg",
    "capital": "Manila",
    "currency": "PHP"
  },
  {
    "name": "Pitcairn",
    "code": "PN",
    "dial_code": "+64",
    "flag": "https://upload.wikimedia.org/wikipedia/commons/8/88/Flag_of_the_Pitcairn_Islands.svg",
    "capital": "Adamstown",
    "currency": "NZD"
  },
  {
    "name": "Poland",
    "code": "PL",
    "dial_code": "+48",
    "flag": "https://upload.wikimedia.org/wikipedia/en/1/12/Flag_of_Poland.svg",
    "capital": "Warsaw",
    "currency": "PLN"
  },
  {
    "name": "Portugal",
    "code": "PT",
    "dial_code": "+351",
    "flag": "https://upload.wikimedia.org/wikipedia/commons/5/5c/Flag_of_Portugal.svg",
    "capital": "Lisbon",
    "currency": "EUR"
  },
  {
    "name": "Puerto Rico",
    "code": "PR",
    "dial_code": "+1939",
    "flag": "https://upload.wikimedia.org/wikipedia/commons/2/28/Flag_of_Puerto_Rico.svg",
    "capital": "San Juan",
    "currency": "USD"
  },
  {
    "name": "Qatar",
    "code": "QA",
    "dial_code": "+974",
    "flag": "https://upload.wikimedia.org/wikipedia/commons/6/65/Flag_of_Qatar.svg",
    "capital": "Doha",
    "currency": "QAR"
  },
  {
    "name": "Romania",
    "code": "RO",
    "dial_code": "+40",
    "flag": "https://upload.wikimedia.org/wikipedia/commons/7/73/Flag_of_Romania.svg",
    "capital": "Bucharest",
    "currency": "RON"
  },
  {
    "name": "Russia",
    "code": "RU",
    "dial_code": "+7",
    "capital": "Moscow",
    "currency": "RUB"
  },
  {
    "name": "Rwanda",
    "code": "RW",
    "dial_code": "+250",
    "flag": "https://upload.wikimedia.org/wikipedia/commons/1/17/Flag_of_Rwanda.svg",
    "capital": "Kigali",
    "currency": "RWF"
  },
  {
    "name": "Reunion",
    "code": "RE",
    "dial_code": "+262",
    "capital": "Saint-Denis",
    "currency": "EUR"
  },
  {
    "name": "Saint Barthelemy",
    "code": "BL",
    "dial_code": "+590",
    "capital": "Gustavia",
    "currency": "EUR"
  },
  {
    "name": "Saint Helena, Ascension and Tristan Da Cunha",
    "code": "SH",
    "dial_code": "+290"
  },
  {
    "name": "Saint Kitts and Nevis",
    "code": "KN",
    "dial_code": "+1869",
    "flag": "https://upload.wikimedia.org/wikipedia/commons/f/fe/Flag_of_Saint_Kitts_and_Nevis.svg",
    "capital": "Basseterre",
    "currency": "XCD"
  },
  {
    "name": "Saint Lucia",
    "code": "LC",
    "dial_code": "+1758",
    "flag": "https://upload.wikimedia.org/wikipedia/commons/9/9f/Flag_of_Saint_Lucia.svg",
    "capital": "Castries",
    "currency": "XCD"
  },
  {
    "name": "Saint Martin",
    "code": "MF",
    "dial_code": "+590",
    "capital": "Marigot",
    "currency": "EUR"
  },
  {
    "name": "Saint Pierre and Miquelon",
    "code": "PM",
    "dial_code": "+508",
    "flag": "https://upload.wikimedia.org/wikipedia/commons/7/74/Flag_of_Saint-Pierre_and_Miquelon.svg",
    "capital": "Saint-Pierre",
    "currency": "EUR"
  },
  {
    "name": "Saint Vincent and the Grenadines",
    "code": "VC",
    "dial_code": "+1784",
    "flag": "https://upload.wikimedia.org/wikipedia/commons/6/6d/Flag_of_Saint_Vincent_and_the_Grenadines.svg",
    "capital": "Kingstown",
    "currency": "XCD"
  },
  {
    "name": "Samoa",
    "code": "WS",
    "dial_code": "+685",
    "flag": "https://upload.wikimedia.org/wikipedia/commons/3/31/Flag_of_Samoa.svg",
    "capital": "Apia",
    "currency": "WST"
  },
  {
    "name": "San Marino",
    "code": "SM",
    "dial_code": "+378",
    "flag": "https://upload.wikimedia.org/wikipedia/commons/b/b1/Flag_of_San_Marino.svg",
    "capital": "San Marino",
    "currency": "EUR"
  },
  {
    "name": "Sao Tome and Principe",
    "code": "ST",
    "dial_code": "+239",
    "flag": "https://upload.wikimedia.org/wikipedia/commons/4/4f/Flag_of_Sao_Tome_and_Principe.svg",
    "capital": "Sao Tome",
    "currency": "STD"
  },
  {
    "name": "Saudi Arabia",
    "code": "SA",
    "dial_code": "+966",
    "flag": "https://upload.wikimedia.org/wikipedia/commons/0/0d/Flag_of_Saudi_Arabia.svg",
    "capital": "Riyadh",
    "currency": "SAR"
  },
  {
    "name": "Senegal",
    "code": "SN",
    "dial_code": "+221",
    "flag": "https://upload.wikimedia.org/wikipedia/commons/f/fd/Flag_of_Senegal.svg",
    "capital": "Dakar",
    "currency": "XOF"
  },
  {
    "name": "Serbia",
    "code": "RS",
    "dial_code": "+381",
    "flag": "https://upload.wikimedia.org/wikipedia/commons/f/ff/Flag_of_Serbia.svg",
    "capital": "Belgrade",
    "currency": "RSD"
  },
  {
    "name": "Seychelles",
    "code": "SC",
    "dial_code": "+248",
    "flag": "https://upload.wikimedia.org/wikipedia/commons/f/fc/Flag_of_Seychelles.svg",
    "capital": "Victoria",
    "currency": "SCR"
  },
  {
    "name": "Sierra Leone",
    "code": "SL",
    "dial_code": "+232",
    "flag": "https://upload.wikimedia.org/wikipedia/commons/1/17/Flag_of_Sierra_Leone.svg",
    "capital": "Freetown",
    "currency": "SLL"
  },
  {
    "name": "Singapore",
    "code": "SG",
    "dial_code": "+65",
    "flag": "https://upload.wikimedia.org/wikipedia/commons/4/48/Flag_of_Singapore.svg",
    "capital": "Singapore",
    "currency": "SGD"
  },
  {
    "name": "Slovakia",
    "code": "SK",
    "dial_code": "+421",
    "flag": "https://upload.wikimedia.org/wikipedia/commons/e/e6/Flag_of_Slovakia.svg",
    "capital": "Bratislava",
    "currency": "EUR"
  },
  {
    "name": "Slovenia",
    "code": "SI",
    "dial_code": "+386",
    "flag": "https://upload.wikimedia.org/wikipedia/commons/f/f0/Flag_of_Slovenia.svg",
    "capital": "Ljubljana",
    "currency": "EUR"
  },
  {
    "name": "Solomon Islands",
    "code": "SB",
    "dial_code": "+677",
    "flag": "https://upload.wikimedia.org/wikipedia/commons/7/74/Flag_of_the_Solomon_Islands.svg",
    "capital": "Honiara",
    "currency": "SBD"
  },
  {
    "name": "Somalia",
    "code": "SO",
    "dial_code": "+252",
    "flag": "https://upload.wikimedia.org/wikipedia/commons/a/a0/Flag_of_Somalia.svg",
    "capital": "Mogadishu",
    "currency": "SOS"
  },
  {
    "name": "South Africa",
    "code": "ZA",
    "dial_code": "+27",
    "flag": "https://upload.wikimedia.org/wikipedia/commons/a/af/Flag_of_South_Africa.svg",
    "capital": "Pretoria",
    "currency": "ZAR"
  },
  {
    "name": "South Sudan",
    "code": "SS",
    "dial_code": "+211",
    "capital": "Juba",
    "currency": "SSP"
  },
  {
    "name": "South Georgia and the South Sandwich Islands",
    "code": "GS",
    "dial_code": "+500",
    "flag": "https://upload.wikimedia.org/wikipedia/commons/e/ed/Flag_of_South_Georgia_and_the_South_Sandwich_Islands.svg",
    "capital": "Grytviken",
    "currency": "GBP"
  },
  {
    "name": "Spain",
    "code": "ES",
    "dial_code": "+34",
    "flag": "https://upload.wikimedia.org/wikipedia/en/9/9a/Flag_of_Spain.svg",
    "capital": "Madrid",
    "currency": "EUR"
  },
  {
    "name": "Sri Lanka",
    "code": "LK",
    "dial_code": "+94",
    "flag": "https://upload.wikimedia.org/wikipedia/commons/1/11/Flag_of_Sri_Lanka.svg",
    "capital": "Colombo",
    "currency": "LKR"
  },
  {
    "name": "Sudan",
    "code": "SD",
    "dial_code": "+249",
    "flag": "https://upload.wikimedia.org/wikipedia/commons/0/01/Flag_of_Sudan.svg",
    "capital": "Khartoum",
    "currency": "SDG"
  },
  {
    "name": "Suriname",
    "code": "SR",
    "dial_code": "+597",
    "flag": "https://upload.wikimedia.org/wikipedia/commons/6/60/Flag_of_Suriname.svg",
    "capital": "Paramaribo",
    "currency": "SRD"
  },
  {
    "name": "Svalbard and Jan Mayen",
    "code": "SJ",
    "dial_code": "+47",
    "capital": "Longyearbyen",
    "currency": "NOK"
  },
  {
    "name": "Eswatini",
    "code": "SZ",
    "dial_code": "+268",
    "flag": "https://upload.wikimedia.org/wikipedia/commons/3/38/Flag_of_Swaziland_1894.svg",
    "capital": "Mbabane",
    "currency": "SZL"
  },
  {
    "name": "Sweden",
    "code": "SE",
    "dial_code": "+46",
    "flag": "https://upload.wikimedia.org/wikipedia/en/4/4c/Flag_of_Sweden.svg",
    "capital": "Stockholm",
    "currency": "SEK"
  },
  {
    "name": "Switzerland",
    "code": "CH",
    "dial_code": "+41",
    "flag": "https://upload.wikimedia.org/wikipedia/commons/0/08/Flag_of_Switzerland_%28Pantone%29.svg",
    "capital": "Berne",
    "currency": "CHF"
  },
  {
    "name": "Syrian Arab Republic",
    "code": "SY",
    "dial_code": "+963",
    "flag": "https://upload.wikimedia.org/wikipedia/commons/5/53/Flag_of_Syria.svg"
  },
  {
    "name": "Taiwan",
    "code": "TW",
    "dial_code": "+886",
    "flag": "https://upload.wikimedia.org/wikipedia/commons/7/72/Flag_of_the_Republic_of_China.svg",
    "capital": "Taipei",
    "currency": "TWD"
  },
  {
    "name": "Tajikistan",
    "code": "TJ",
    "dial_code": "+992",
    "flag": "https://upload.wikimedia.org/wikipedia/commons/d/d0/Flag_of_Tajikistan.svg",
    "capital": "Dushanbe",
    "currency": "TJS"
  },
  {
    "name": "Tanzania, United Republic of Tanzania",
    "code": "TZ",
    "dial_code": "+255"
  },
  {
    "name": "Thailand",
    "code": "TH",
    "dial_code": "+66",
    "flag": "https://upload.wikimedia.org/wikipedia/commons/a/a9/Flag_of_Thailand.svg",
    "capital": "Bangkok",
    "currency": "THB"
  },
  {
    "name": "Timor-Leste",
    "code": "TL",
    "dial_code": "+670",
    "flag": "https://upload.wikimedia.org/wikipedia/commons/2/26/Flag_of_East_Timor.svg"
  },
  {
    "name": "Togo",
    "code": "TG",
    "dial_code": "+228",
    "flag": "https://upload.wikimedia.org/wikipedia/commons/6/68/Flag_of_Togo.svg",
    "capital": "Lome",
    "currency": "XOF"
  },
  {
    "name": "Tokelau",
    "code": "TK",
    "dial_code": "+690",
    "flag": "https://upload.wikimedia.org/wikipedia/commons/8/8e/Flag_of_Tokelau.svg",
    "capital": "",
    "currency": "NZD"
  },
  {
    "name": "Tonga",
    "code": "TO",
    "dial_code": "+676",
    "flag": "https://upload.wikimedia.org/wikipedia/commons/9/9a/Flag_of_Tonga.svg",
    "capital": "Nuku'alofa",
    "currency": "TOP"
  },
  {
    "name": "Trinidad and Tobago",
    "code": "TT",
    "dial_code": "+1868",
    "flag": "https://upload.wikimedia.org/wikipedia/commons/6/64/Flag_of_Trinidad_and_Tobago.svg",
    "capital": "Port of Spain",
    "currency": "TTD"
  },
  {
    "name": "Tunisia",
    "code": "TN",
    "dial_code": "+216",
    "flag": "https://upload.wikimedia.org/wikipedia/commons/c/ce/Flag_of_Tunisia.svg",
    "capital": "Tunis",
    "currency": "TND"
  },
  {
    "name": "Turkey",
    "code": "TR",
    "dial_code": "+90",
    "flag": "https://upload.wikimedia.org/wikipedia/commons/b/b4/Flag_of_Turkey.svg",
    "capital": "Ankara",
    "currency": "TRY"
  },
  {
    "name": "Turkmenistan",
    "code": "TM",
    "dial_code": "+993",
    "flag": "https://upload.wikimedia.org/wikipedia/commons/1/1b/Flag_of_Turkmenistan.svg",
    "capital": "Ashgabat",
    "currency": "TMT"
  },
  {
    "name": "Turks and Caicos Islands",
    "code": "TC",
    "dial_code": "+1649",
    "flag": "https://upload.wikimedia.org/wikipedia/commons/a/a0/Flag_of_the_Turks_and_Caicos_Islands.svg",
    "capital": "Cockburn Town",
    "currency": "USD"
  },
  {
    "name": "Tuvalu",
    "code": "TV",
    "dial_code": "+688",
    "flag": "https://upload.wikimedia.org/wikipedia/commons/3/38/Flag_of_Tuvalu.svg",
    "capital": "Funafuti",
    "currency": "AUD"
  },
  {
    "name": "Uganda",
    "code": "UG",
    "dial_code": "+256",
    "flag": "https://upload.wikimedia.org/wikipedia/commons/4/4e/Flag_of_Uganda.svg",
    "capital": "Kampala",
    "currency": "UGX"
  },
  {
    "name": "Ukraine",
    "code": "UA",
    "dial_code": "+380",
    "flag": "https://upload.wikimedia.org/wikipedia/commons/4/49/Flag_of_Ukraine.svg",
    "capital": "Kiev",
    "currency": "UAH"
  },
  {
    "name": "United Arab Emirates",
    "code": "AE",
    "dial_code": "+971",
    "flag": "https://upload.wikimedia.org/wikipedia/commons/c/cb/Flag_of_the_United_Arab_Emirates.svg",
    "capital": "Abu Dhabi",
    "currency": "AED"
  },
  {
    "name": "United Kingdom",
    "code": "GB",
    "dial_code": "+44",
    "flag": "https://upload.wikimedia.org/wikipedia/en/a/ae/Flag_of_the_United_Kingdom.svg",
    "capital": "London",
    "currency": "GBP"
  },
  {
    "name": "United States",
    "code": "US",
    "dial_code": "+1",
    "flag": "https://upload.wikimedia.org/wikipedia/en/a/a4/Flag_of_the_United_States.svg",
    "capital": "Washington",
    "currency": "USD"
  },
  {
    "name": "Uruguay",
    "code": "UY",
    "dial_code": "+598",
    "flag": "https://upload.wikimedia.org/wikipedia/commons/f/fe/Flag_of_Uruguay.svg",
    "capital": "Montevideo",
    "currency": "UYU"
  },
  {
    "name": "Uzbekistan",
    "code": "UZ",
    "dial_code": "+998",
    "flag": "https://upload.wikimedia.org/wikipedia/commons/8/84/Flag_of_Uzbekistan.svg",
    "capital": "Tashkent",
    "currency": "UZS"
  },
  {
    "name": "Vanuatu",
    "code": "VU",
    "dial_code": "+678",
    "flag": "https://upload.wikimedia.org/wikipedia/commons/b/bc/Flag_of_Vanuatu.svg",
    "capital": "Port Vila",
    "currency": "VUV"
  },
  {
    "name": "Venezuela, Bolivarian Republic of Venezuela",
    "code": "VE",
    "dial_code": "+58"
  },
  {
    "name": "Vietnam",
    "code": "VN",
    "dial_code": "+84",
    "capital": "Hanoi",
    "currency": "VND"
  },
  {
    "name": "Virgin Islands, British",
    "code": "VG",
    "dial_code": "+1284"
  },
  {
    "name": "Virgin Islands, U.S.",
    "code": "VI",
    "dial_code": "+1340"
  },
  {
    "name": "Wallis and Futuna",
    "code": "WF",
    "dial_code": "+681",
    "flag": "https://upload.wikimedia.org/wikipedia/commons/d/d2/Flag_of_Wallis_and_Futuna.svg",
    "capital": "Mata Utu",
    "currency": "XPF"
  },
  {
    "name": "Yemen",
    "code": "YE",
    "dial_code": "+967",
    "flag": "https://upload.wikimedia.org/wikipedia/commons/8/89/Flag_of_Yemen.svg",
    "capital": "Sanaa",
    "currency": "YER"
  },
  {
    "name": "Zambia",
    "code": "ZM",
    "dial_code": "+260",
    "flag": "https://upload.wikimedia.org/wikipedia/commons/0/06/Flag_of_Zambia.svg",
    "capital": "Lusaka",
    "currency": "ZMK"
  },
  {
    "name": "Zimbabwe",
    "code": "ZW",
    "dial_code": "+263",
    "flag": "https://upload.wikimedia.org/wikipedia/commons/6/6a/Flag_of_Zimbabwe.svg",
    "capital": "Harare",
    "currency": "ZWL"
  }
]